[{"OBJECT_NAME":"STARLINK-4291","OBJECT_ID":"2022-076C","EPOCH":"2026-03-09T12:13:03.705888","MEAN_MOTION":15.08832472,"ECCENTRICITY":0.00014193,"INCLINATION":53.2165,"RA_OF_ASC_NODE":94.9284,"ARG_OF_PERICENTER":87.4333,"MEAN_ANOMALY":272.6821,"EPHEMERIS_TYPE":0,"CLASSIFICATION_TYPE":"U","NORAD_CAT_ID":52988,"ELEMENT_SET_NO":999,"REV_AT_EPOCH":20281,"BSTAR":4.8660881e-5,"MEAN_MOTION_DOT":4.86e-6,"MEAN_MOTION_DDOT":0},{"OBJECT_NAME":"IUS R\/B(1)","OBJECT_ID":"1997-008C","EPOCH":"2026-03-08T15:20:46.939488","MEAN_MOTION":2.41380573,"ECCENTRICITY":0.71285241,"INCLINATION":28.3582,"RA_OF_ASC_NODE":309.1773,"ARG_OF_PERICENTER":299.1733,"MEAN_ANOMALY":8.4784,"EPHEMERIS_TYPE":0,"CLASSIFICATION_TYPE":"U","NORAD_CAT_ID":24739,"ELEMENT_SET_NO":999,"REV_AT_EPOCH":6035,"BSTAR":0.00049379785,"MEAN_MOTION_DOT":-4.6e-7,"MEAN_MOTION_DDOT":0}]
